[{"OBJECT_NAME":"ONEWEB-0411","OBJECT_ID":"2022-012B","EPOCH":"2025-10-08T04:27:46.510272","MEAN_MOTION":13.10373684,"ECCENTRICITY":0.00020027,"INCLINATION":87.8747,"RA_OF_ASC_NODE":86.5106,"ARG_OF_PERICENTER":104.5774,"MEAN_ANOMALY":255.5575,"EPHEMERIS_TYPE":0,"CLASSIFICATION_TYPE":"U","NORAD_CAT_ID":51623,"ELEMENT_SET_NO":999,"REV_AT_EPOCH":17628,"BSTAR":-0.0019214757,"MEAN_MOTION_DOT":-6.58e-6,"MEAN_MOTION_DDOT":0},{"OBJECT_NAME":"ONEWEB-0415","OBJECT_ID":"2022-012C","EPOCH":"2025-10-08T04:22:59.653632","MEAN_MOTION":13.10372436,"ECCENTRICITY":0.00018521,"INCLINATION":87.8746,"RA_OF_ASC_NODE":86.5134,"ARG_OF_PERICENTER":98.2664,"MEAN_ANOMALY":261.8674,"EPHEMERIS_TYPE":0,"CLASSIFICATION_TYPE":"U","NORAD_CAT_ID":51624,"ELEMENT_SET_NO":999,"REV_AT_EPOCH":17628,"BSTAR":-0.0017130754,"MEAN_MOTION_DOT":-5.85e-6,"MEAN_MOTION_DDOT":0},{"OBJECT_NAME":"ONEWEB-0416","OBJECT_ID":"2022-012D","EPOCH":"2025-10-08T04:39:43.689888","MEAN_MOTION":13.103754,"ECCENTRICITY":0.00016669,"INCLINATION":87.8745,"RA_OF_ASC_NODE":86.5313,"ARG_OF_PERICENTER":90.7765,"MEAN_ANOMALY":269.3553,"EPHEMERIS_TYPE":0,"CLASSIFICATION_TYPE":"U","NORAD_CAT_ID":51625,"ELEMENT_SET_NO":999,"REV_AT_EPOCH":17632,"BSTAR":-0.0013672295,"MEAN_MOTION_DOT":-4.65e-6,"MEAN_MOTION_DDOT":0},{"OBJECT_NAME":"ONEWEB-0422","OBJECT_ID":"2022-012E","EPOCH":"2025-10-08T02:51:49.716288","MEAN_MOTION":13.17649148,"ECCENTRICITY":0.00012863,"INCLINATION":87.9091,"RA_OF_ASC_NODE":55.9724,"ARG_OF_PERICENTER":120.5419,"MEAN_ANOMALY":239.5839,"EPHEMERIS_TYPE":0,"CLASSIFICATION_TYPE":"U","NORAD_CAT_ID":51626,"ELEMENT_SET_NO":999,"REV_AT_EPOCH":18061,"BSTAR":-8.066932e-6,"MEAN_MOTION_DOT":1.0e-7,"MEAN_MOTION_DDOT":0},{"OBJECT_NAME":"ONEWEB-0423","OBJECT_ID":"2022-012F","EPOCH":"2025-10-08T02:42:04.522176","MEAN_MOTION":13.17645791,"ECCENTRICITY":0.00015588,"INCLINATION":87.9094,"RA_OF_ASC_NODE":55.9833,"ARG_OF_PERICENTER":96.1251,"MEAN_ANOMALY":264.0058,"EPHEMERIS_TYPE":0,"CLASSIFICATION_TYPE":"U","NORAD_CAT_ID":51627,"ELEMENT_SET_NO":999,"REV_AT_EPOCH":18050,"BSTAR":-0.00016080799,"MEAN_MOTION_DOT":-5.0e-7,"MEAN_MOTION_DDOT":0},{"OBJECT_NAME":"ONEWEB-0425","OBJECT_ID":"2022-012G","EPOCH":"2025-10-08T04:54:05.149728","MEAN_MOTION":13.10376772,"ECCENTRICITY":0.00016556,"INCLINATION":87.8749,"RA_OF_ASC_NODE":86.4984,"ARG_OF_PERICENTER":78.4699,"MEAN_ANOMALY":281.6615,"EPHEMERIS_TYPE":0,"CLASSIFICATION_TYPE":"U","NORAD_CAT_ID":51628,"ELEMENT_SET_NO":999,"REV_AT_EPOCH":17632,"BSTAR":0.0003353036,"MEAN_MOTION_DOT":1.3e-6,"MEAN_MOTION_DDOT":0},{"OBJECT_NAME":"ONEWEB-0428","OBJECT_ID":"2022-012H","EPOCH":"2025-10-07T21:05:33.956736","MEAN_MOTION":13.10373258,"ECCENTRICITY":0.0001523,"INCLINATION":87.8744,"RA_OF_ASC_NODE":86.5845,"ARG_OF_PERICENTER":96.8767,"MEAN_ANOMALY":263.2533,"EPHEMERIS_TYPE":0,"CLASSIFICATION_TYPE":"U","NORAD_CAT_ID":51629,"ELEMENT_SET_NO":999,"REV_AT_EPOCH":17624,"BSTAR":-0.0020783,"MEAN_MOTION_DOT":-7.13e-6,"MEAN_MOTION_DDOT":0},{"OBJECT_NAME":"ONEWEB-0431","OBJECT_ID":"2022-012J","EPOCH":"2025-10-08T03:42:11.635776","MEAN_MOTION":13.10370394,"ECCENTRICITY":0.00019653,"INCLINATION":87.8753,"RA_OF_ASC_NODE":86.5038,"ARG_OF_PERICENTER":110.4311,"MEAN_ANOMALY":249.7028,"EPHEMERIS_TYPE":0,"CLASSIFICATION_TYPE":"U","NORAD_CAT_ID":51630,"ELEMENT_SET_NO":999,"REV_AT_EPOCH":17633,"BSTAR":0.0012757211,"MEAN_MOTION_DOT":4.58e-6,"MEAN_MOTION_DDOT":0},{"OBJECT_NAME":"ONEWEB-0434","OBJECT_ID":"2022-012K","EPOCH":"2025-10-07T10:39:19.546272","MEAN_MOTION":13.10376693,"ECCENTRICITY":0.00016845,"INCLINATION":87.8753,"RA_OF_ASC_NODE":86.6862,"ARG_OF_PERICENTER":67.835,"MEAN_ANOMALY":292.2956,"EPHEMERIS_TYPE":0,"CLASSIFICATION_TYPE":"U","NORAD_CAT_ID":51631,"ELEMENT_SET_NO":999,"REV_AT_EPOCH":17622,"BSTAR":0.0011884782,"MEAN_MOTION_DOT":4.28e-6,"MEAN_MOTION_DDOT":0},{"OBJECT_NAME":"ONEWEB-0435","OBJECT_ID":"2022-012L","EPOCH":"2025-10-08T05:10:49.986048","MEAN_MOTION":13.10374823,"ECCENTRICITY":0.00013318,"INCLINATION":87.875,"RA_OF_ASC_NODE":86.5231,"ARG_OF_PERICENTER":101.3108,"MEAN_ANOMALY":258.8169,"EPHEMERIS_TYPE":0,"CLASSIFICATION_TYPE":"U","NORAD_CAT_ID":51632,"ELEMENT_SET_NO":999,"REV_AT_EPOCH":17631,"BSTAR":0.0017557607,"MEAN_MOTION_DOT":6.26e-6,"MEAN_MOTION_DDOT":0},{"OBJECT_NAME":"ONEWEB-0436","OBJECT_ID":"2022-012M","EPOCH":"2025-10-08T07:58:00.917184","MEAN_MOTION":13.17648545,"ECCENTRICITY":0.00016327,"INCLINATION":87.9092,"RA_OF_ASC_NODE":55.9189,"ARG_OF_PERICENTER":104.7939,"MEAN_ANOMALY":255.3374,"EPHEMERIS_TYPE":0,"CLASSIFICATION_TYPE":"U","NORAD_CAT_ID":51633,"ELEMENT_SET_NO":999,"REV_AT_EPOCH":18051,"BSTAR":8.159176e-6,"MEAN_MOTION_DOT":1.6e-7,"MEAN_MOTION_DDOT":0},{"OBJECT_NAME":"ONEWEB-0438","OBJECT_ID":"2022-012N","EPOCH":"2025-10-08T04:46:54.355872","MEAN_MOTION":13.10376686,"ECCENTRICITY":0.00016362,"INCLINATION":87.875,"RA_OF_ASC_NODE":86.5272,"ARG_OF_PERICENTER":84.0284,"MEAN_ANOMALY":276.1029,"EPHEMERIS_TYPE":0,"CLASSIFICATION_TYPE":"U","NORAD_CAT_ID":51634,"ELEMENT_SET_NO":999,"REV_AT_EPOCH":17634,"BSTAR":-0.00049176174,"MEAN_MOTION_DOT":-1.59e-6,"MEAN_MOTION_DDOT":0},{"OBJECT_NAME":"ONEWEB-0439","OBJECT_ID":"2022-012P","EPOCH":"2025-10-08T04:51:41.596992","MEAN_MOTION":13.10376642,"ECCENTRICITY":0.0001569,"INCLINATION":87.875,"RA_OF_ASC_NODE":86.5152,"ARG_OF_PERICENTER":90.2886,"MEAN_ANOMALY":269.8422,"EPHEMERIS_TYPE":0,"CLASSIFICATION_TYPE":"U","NORAD_CAT_ID":51635,"ELEMENT_SET_NO":999,"REV_AT_EPOCH":17632,"BSTAR":-5.6028683e-5,"MEAN_MOTION_DOT":-7.0e-8,"MEAN_MOTION_DDOT":0},{"OBJECT_NAME":"ONEWEB-0442","OBJECT_ID":"2022-012Q","EPOCH":"2025-10-08T07:47:03.200640","MEAN_MOTION":13.17651086,"ECCENTRICITY":0.00020357,"INCLINATION":87.9085,"RA_OF_ASC_NODE":55.9734,"ARG_OF_PERICENTER":80.2766,"MEAN_ANOMALY":279.8595,"EPHEMERIS_TYPE":0,"CLASSIFICATION_TYPE":"U","NORAD_CAT_ID":51636,"ELEMENT_SET_NO":999,"REV_AT_EPOCH":18050,"BSTAR":-4.109964e-6,"MEAN_MOTION_DOT":1.1e-7,"MEAN_MOTION_DDOT":0},{"OBJECT_NAME":"ONEWEB-0443","OBJECT_ID":"2022-012R","EPOCH":"2025-10-07T19:29:32.880768","MEAN_MOTION":13.17648775,"ECCENTRICITY":0.0001512,"INCLINATION":87.9082,"RA_OF_ASC_NODE":56.0822,"ARG_OF_PERICENTER":87.0649,"MEAN_ANOMALY":273.0655,"EPHEMERIS_TYPE":0,"CLASSIFICATION_TYPE":"U","NORAD_CAT_ID":51637,"ELEMENT_SET_NO":999,"REV_AT_EPOCH":18048,"BSTAR":-0.0010832538,"MEAN_MOTION_DOT":-4.08e-6,"MEAN_MOTION_DDOT":0},{"OBJECT_NAME":"ONEWEB-0444","OBJECT_ID":"2022-012S","EPOCH":"2025-10-08T04:37:17.812992","MEAN_MOTION":13.10376189,"ECCENTRICITY":0.00016128,"INCLINATION":87.8743,"RA_OF_ASC_NODE":86.5165,"ARG_OF_PERICENTER":90.9004,"MEAN_ANOMALY":269.2309,"EPHEMERIS_TYPE":0,"CLASSIFICATION_TYPE":"U","NORAD_CAT_ID":51638,"ELEMENT_SET_NO":999,"REV_AT_EPOCH":17633,"BSTAR":-0.0036573136,"MEAN_MOTION_DOT":-1.264e-5,"MEAN_MOTION_DDOT":0},{"OBJECT_NAME":"ONEWEB-0445","OBJECT_ID":"2022-012T","EPOCH":"2025-10-08T05:08:25.071648","MEAN_MOTION":13.10376858,"ECCENTRICITY":0.00018103,"INCLINATION":87.8766,"RA_OF_ASC_NODE":86.4695,"ARG_OF_PERICENTER":89.5315,"MEAN_ANOMALY":270.6019,"EPHEMERIS_TYPE":0,"CLASSIFICATION_TYPE":"U","NORAD_CAT_ID":51639,"ELEMENT_SET_NO":999,"REV_AT_EPOCH":17634,"BSTAR":0.0016300999,"MEAN_MOTION_DOT":5.82e-6,"MEAN_MOTION_DDOT":0},{"OBJECT_NAME":"ONEWEB-0446","OBJECT_ID":"2022-012U","EPOCH":"2025-10-07T12:05:21.402816","MEAN_MOTION":13.10375746,"ECCENTRICITY":0.00018588,"INCLINATION":87.8747,"RA_OF_ASC_NODE":86.6703,"ARG_OF_PERICENTER":93.1261,"MEAN_ANOMALY":267.0079,"EPHEMERIS_TYPE":0,"CLASSIFICATION_TYPE":"U","NORAD_CAT_ID":51640,"ELEMENT_SET_NO":999,"REV_AT_EPOCH":17623,"BSTAR":-0.0013233937,"MEAN_MOTION_DOT":-4.49e-6,"MEAN_MOTION_DDOT":0},{"OBJECT_NAME":"ONEWEB-0448","OBJECT_ID":"2022-012V","EPOCH":"2025-10-08T04:42:07.185600","MEAN_MOTION":13.10376689,"ECCENTRICITY":0.00015401,"INCLINATION":87.8753,"RA_OF_ASC_NODE":86.5318,"ARG_OF_PERICENTER":91.9323,"MEAN_ANOMALY":268.1981,"EPHEMERIS_TYPE":0,"CLASSIFICATION_TYPE":"U","NORAD_CAT_ID":51641,"ELEMENT_SET_NO":999,"REV_AT_EPOCH":17629,"BSTAR":-0.00083643372,"MEAN_MOTION_DOT":-2.79e-6,"MEAN_MOTION_DDOT":0},{"OBJECT_NAME":"ONEWEB-0449","OBJECT_ID":"2022-012W","EPOCH":"2025-10-08T04:49:17.963904","MEAN_MOTION":13.10376816,"ECCENTRICITY":0.00016324,"INCLINATION":87.8746,"RA_OF_ASC_NODE":86.5007,"ARG_OF_PERICENTER":73.4786,"MEAN_ANOMALY":286.6521,"EPHEMERIS_TYPE":0,"CLASSIFICATION_TYPE":"U","NORAD_CAT_ID":51642,"ELEMENT_SET_NO":999,"REV_AT_EPOCH":17630,"BSTAR":-0.00020858084,"MEAN_MOTION_DOT":-6.0e-7,"MEAN_MOTION_DDOT":0},{"OBJECT_NAME":"ONEWEB-0451","OBJECT_ID":"2022-012X","EPOCH":"2025-10-08T07:53:08.200032","MEAN_MOTION":13.17647891,"ECCENTRICITY":0.00016532,"INCLINATION":87.9095,"RA_OF_ASC_NODE":55.9135,"ARG_OF_PERICENTER":92.4533,"MEAN_ANOMALY":267.6788,"EPHEMERIS_TYPE":0,"CLASSIFICATION_TYPE":"U","NORAD_CAT_ID":51643,"ELEMENT_SET_NO":999,"REV_AT_EPOCH":18049,"BSTAR":-0.00012403808,"MEAN_MOTION_DOT":-3.5e-7,"MEAN_MOTION_DDOT":0},{"OBJECT_NAME":"ONEWEB-0452","OBJECT_ID":"2022-012Y","EPOCH":"2025-10-08T07:50:42.935712","MEAN_MOTION":13.17649925,"ECCENTRICITY":0.00014922,"INCLINATION":87.909,"RA_OF_ASC_NODE":55.9741,"ARG_OF_PERICENTER":88.462,"MEAN_ANOMALY":271.6682,"EPHEMERIS_TYPE":0,"CLASSIFICATION_TYPE":"U","NORAD_CAT_ID":51644,"ELEMENT_SET_NO":999,"REV_AT_EPOCH":18050,"BSTAR":0.00016627037,"MEAN_MOTION_DOT":7.7e-7,"MEAN_MOTION_DDOT":0},{"OBJECT_NAME":"ONEWEB-0456","OBJECT_ID":"2022-012AA","EPOCH":"2025-10-08T05:03:38.692800","MEAN_MOTION":13.10376759,"ECCENTRICITY":0.00015089,"INCLINATION":87.8763,"RA_OF_ASC_NODE":86.4621,"ARG_OF_PERICENTER":96.0961,"MEAN_ANOMALY":264.0338,"EPHEMERIS_TYPE":0,"CLASSIFICATION_TYPE":"U","NORAD_CAT_ID":51646,"ELEMENT_SET_NO":999,"REV_AT_EPOCH":17634,"BSTAR":0.0015173164,"MEAN_MOTION_DOT":5.42e-6,"MEAN_MOTION_DDOT":0}]
